NORAD_CAT_ID,OBJECT_NAME,OBJECT_TYPE,EPOCH,MEAN_MOTION,ECCENTRICITY,INCLINATION,RA_OF_ASC_NODE,ARG_OF_PERICENTER,MEAN_ANOMALY,BSTAR,MEAN_MOTION_DOT,MEAN_MOTION_DDOT,TLE_LINE0,TLE_LINE1,TLE_LINE2,SEMIMAJOR_AXIS,PERIOD,APOGEE,PERIGEE,DECAYED
53268.0,STARLINK-4109,PAYLOAD,2024-06-03 09:41:01,15.08839282,0.0001272,53.2161,206.4331,89.2808,270.833,0.00014491,2.019e-05,0.0,0 STARLINK-4109,1 53268U 22086AC  24155.40349461  .00002019  00000-0  14491-3 0  9994,2 53268  53.2161 206.4331 0001272  89.2808 270.8330 15.08839282103801,6917.883,95.438,540.628,538.868,0.0
53268.0,STARLINK-4109,PAYLOAD,2024-06-03 20:48:43,15.08849389,0.0001371,53.2163,204.3521,87.9345,272.1804,0.00018259,2.62e-05,0.0,0 STARLINK-4109,1 53268U 22086AC  24155.86716696  .00002620  00000-0  18259-3 0  9996,2 53268  53.2163 204.3521 0001371  87.9345 272.1804 15.08849389103879,6917.852,95.437,540.665,538.768,0.0
53268.0,STARLINK-4109,PAYLOAD,2024-06-04 04:45:39,15.08841886,0.0001432,53.2172,202.8656,89.3839,270.7317,6.9507e-05,8.18e-06,0.0,0 STARLINK-4109,1 53268U 22086AC  24156.19837457  .00000818  00000-0  69507-4 0  9992,2 53268  53.2172 202.8656 0001432  89.3839 270.7317 15.08841886103746,6917.875,95.437,540.73,538.749,0.0
53268.0,STARLINK-4109,PAYLOAD,2024-06-04 09:31:48,15.08848958,0.0001696,53.2189,201.971,97.012,263.1065,0.00010691,1.414e-05,0.0,0 STARLINK-4109,1 53268U 22086AC  24156.39708862  .00001414  00000-0  10691-3 0  9993,2 53268  53.2189 201.9710 0001696  97.0120 263.1065 15.08848958103772,6917.853,95.437,540.891,538.545,0.0
53268.0,STARLINK-4109,PAYLOAD,2024-06-04 20:39:30,15.08848428,0.0001308,53.2167,199.8907,96.3543,263.7598,0.00010758,1.425e-05,0.0,0 STARLINK-4109,1 53268U 22086AC  24156.86076593  .00001425  00000-0  10758-3 0  9990,2 53268  53.2167 199.8907 0001308  96.3543 263.7598 15.08848428104020,6917.855,95.437,540.624,538.815,0.0
53268.0,STARLINK-4109,PAYLOAD,2024-06-05 09:22:35,15.08842452,0.0001497,53.2171,197.512,91.1761,268.9403,-8.1448e-06,-4.18e-06,0.0,0 STARLINK-4109,1 53268U 22086AC  24157.39069185 -.00000418  00000-0 -81448-5 0  9997,2 53268  53.2171 197.5120 0001497  91.1761 268.9403 15.08842452103922,6917.873,95.437,540.773,538.702,0.0
53268.0,STARLINK-4109,PAYLOAD,2024-06-06 09:13:23,15.08834456,0.0001349,53.2171,193.0517,91.1863,268.9284,-1.2139e-05,-4.81e-06,0.0,0 STARLINK-4109,1 53268U 22086AC  24158.38429626 -.00000481  00000-0 -12139-4 0  9997,2 53268  53.2171 193.0517 0001349  91.1863 268.9284 15.08834456104071,6917.897,95.438,540.696,538.829,0.0
53268.0,STARLINK-4109,PAYLOAD,2024-06-07 01:07:14,15.08832691,0.0001412,53.2177,190.0785,86.0131,274.1022,4.3816e-05,4.09e-06,0.0,0 STARLINK-4109,1 53268U 22086AC  24159.04669744  .00000409  00000-0  43816-4 0  9992,2 53268  53.2177 190.0785 0001412  86.0131 274.1022 15.08832691104352,6917.903,95.438,540.745,538.791,0.0
53268.0,STARLINK-4109,PAYLOAD,2024-06-07 18:36:28,15.08838665,0.000145,53.2179,186.8075,85.438,274.6778,8.989e-05,1.143e-05,0.0,0 STARLINK-4109,1 53268U 22086AC  24159.77533531  .00001143  00000-0  89890-4 0  9994,2 53268  53.2179 186.8075 0001450  85.4380 274.6778 15.08838665104282,6917.884,95.438,540.753,538.746,0.0
53268.0,STARLINK-4109,PAYLOAD,2024-06-08 12:05:43,15.08841174,0.0001366,53.2174,183.5376,88.7884,271.3265,0.00013564,1.872e-05,0.0,0 STARLINK-4109,1 53268U 22086AC  24160.50397378  .00001872  00000-0  13564-3 0  9997,2 53268  53.2174 183.5376 0001366  88.7884 271.3265 15.08841174104572,6917.877,95.437,540.687,538.797,0.0
53268.0,STARLINK-4109,PAYLOAD,2024-06-08 18:27:15,15.08841803,0.0001343,53.2171,182.3479,88.6424,271.4722,0.0001112,1.482e-05,0.0,0 STARLINK-4109,1 53268U 22086AC  24160.76893406  .00001482  00000-0  11120-3 0  9991,2 53268  53.2171 182.3479 0001343  88.6424 271.4722 15.08841803104617,6917.875,95.437,540.669,538.811,0.0
53268.0,STARLINK-4109,PAYLOAD,2024-06-09 05:34:58,15.08830851,0.0001429,53.217,180.2665,91.4964,268.6192,3.2786e-05,2.34e-06,0.0,0 STARLINK-4109,1 53268U 22086AC  24161.23262594  .00000234  00000-0  32786-4 0  9998,2 53268  53.2170 180.2665 0001429  91.4964 268.6192 15.08830851104504,6917.908,95.438,540.762,538.785,0.0
53268.0,STARLINK-4109,PAYLOAD,2024-06-09 08:45:45,15.08832257,0.0001293,53.2168,179.671,89.6105,270.5036,8.2434e-06,-1.57e-06,0.0,0 STARLINK-4109,1 53268U 22086AC  24161.36510630 -.00000157  00000-0  82434-5 0  9990,2 53268  53.2168 179.6710 0001293  89.6105 270.5036 15.08832257104702,6917.904,95.438,540.664,538.875,0.0
53268.0,STARLINK-4109,PAYLOAD,2024-06-09 18:18:03,15.0883692,0.0001318,53.2167,177.8871,90.1977,269.9166,2.0128e-05,3.2e-07,0.0,0 STARLINK-4109,1 53268U 22086AC  24161.76254433  .00000032  00000-0  20128-4 0  9992,2 53268  53.2167 177.8871 0001318  90.1977 269.9166 15.08836920104764,6917.89,95.438,540.667,538.843,0.0
53268.0,STARLINK-4109,PAYLOAD,2024-06-10 05:25:45,15.08839655,0.0001265,53.2167,175.8055,90.4548,269.6589,5.4459e-05,5.79e-06,0.0,0 STARLINK-4109,1 53268U 22086AC  24162.22622256  .00000579  00000-0  54459-4 0  9996,2 53268  53.2167 175.8055 0001265  90.4548 269.6589 15.08839655104656,6917.881,95.438,540.622,538.871,0.0
53268.0,STARLINK-4109,PAYLOAD,2024-06-10 08:36:31,15.08842701,0.0001273,53.2166,175.2107,91.1915,268.9223,5.5331e-05,5.93e-06,0.0,0 STARLINK-4109,1 53268U 22086AC  24162.35870125  .00000593  00000-0  55331-4 0  9996,2 53268  53.2166 175.2107 0001273  91.1915 268.9223 15.08842701104857,6917.872,95.437,540.618,538.856,0.0
53268.0,STARLINK-4109,PAYLOAD,2024-06-10 18:08:50,15.08845289,0.0001267,53.2166,173.4264,91.0985,269.0152,7.7418e-05,9.45e-06,0.0,0 STARLINK-4109,1 53268U 22086AC  24162.75613899  .00000945  00000-0  77418-4 0  9994,2 53268  53.2166 173.4264 0001267  91.0985 269.0152 15.08845289104914,6917.864,95.437,540.606,538.853,0.0
53268.0,STARLINK-4109,PAYLOAD,2024-06-11 10:02:41,15.08846602,0.000126,53.2154,170.4523,93.6277,266.4859,0.00027166,4.039e-05,0.0,0 STARLINK-4109,1 53268U 22086AC  24163.41853935  .00004039  00000-0  27166-3 0  9997,2 53268  53.2154 170.4523 0001260  93.6277 266.4859 15.08846602105018,6917.86,95.437,540.597,538.854,0.0
53268.0,STARLINK-4109,PAYLOAD,2024-06-12 06:42:42,15.08841601,0.0001326,53.2158,166.5872,94.9472,265.1671,8.9374e-05,1.135e-05,0.0,0 STARLINK-4109,1 53268U 22086AC  24164.27966068  .00001135  00000-0  89374-4 0  9998,2 53268  53.2158 166.5872 0001326  94.9472 265.1671 15.08841601104964,6917.875,95.437,540.658,538.823,0.0
53268.0,STARLINK-4109,PAYLOAD,2024-06-13 09:44:15,15.08843028,0.000135,53.2168,161.5325,96.1415,263.9731,9.158e-06,-1.42e-06,0.0,0 STARLINK-4109,1 53268U 22086AC  24165.40573926 -.00000142  00000-0  91580-5 0  9992,2 53268  53.2168 161.5325 0001350  96.1415 263.9731 15.08843028105319,6917.871,95.437,540.67,538.802,0.0
53268.0,STARLINK-4109,PAYLOAD,2024-06-14 06:24:17,15.08832952,0.0001227,53.2161,157.6669,92.3958,267.7175,2.5475e-05,1.18e-06,0.0,0 STARLINK-4109,1 53268U 22086AC  24166.26686574  .00000118  00000-0  25475-4 0  9992,2 53268  53.2161 157.6669 0001227  92.3958 267.7175 15.08832952105444,6917.902,95.438,540.616,538.918,0.0
53268.0,STARLINK-4109,PAYLOAD,2024-06-14 22:18:08,15.08836289,0.0001232,53.2164,154.6924,89.9687,270.1446,5.004e-05,5.09e-06,0.0,0 STARLINK-4109,1 53268U 22086AC  24166.92926465  .00000509  00000-0  50040-4 0  9991,2 53268  53.2164 154.6924 0001232  89.9687 270.1446 15.08836289105542,6917.892,95.438,540.609,538.904,0.0
53268.0,STARLINK-4109,PAYLOAD,2024-06-15 06:15:03,15.08839761,0.000126,53.2167,153.206,90.3502,269.7634,7.3925e-05,8.89e-06,0.0,0 STARLINK-4109,1 53268U 22086AC  24167.26046244  .00000889  00000-0  73925-4 0  9995,2 53268  53.2167 153.2060 0001260  90.3502 269.7634 15.08839761105590,6917.881,95.438,540.618,538.874,0.0
53268.0,STARLINK-4109,PAYLOAD,2024-06-15 22:08:55,15.08839654,0.0001377,53.2177,150.2328,89.3239,270.7911,8.6475e-05,1.089e-05,0.0,0 STARLINK-4109,1 53268U 22086AC  24167.92286248  .00001089  00000-0  86475-4 0  9995,2 53268  53.2177 150.2328 0001377  89.3239 270.7911 15.08839654105691,6917.881,95.438,540.699,538.794,0.0
53268.0,STARLINK-4109,PAYLOAD,2024-06-16 07:41:14,15.08839432,0.0001433,53.2176,148.4482,87.4154,272.7002,0.00010814,1.433e-05,0.0,0 STARLINK-4109,1 53268U 22086AC  24168.32030344  .00001433  00000-0  10814-3 0  9990,2 53268  53.2176 148.4482 0001433  87.4154 272.7002 15.08839432105752,6917.882,95.438,540.738,538.756,0.0
53268.0,STARLINK-4109,PAYLOAD,2024-06-16 15:38:09,15.08841556,0.0001438,53.2177,146.9614,87.9205,272.1951,0.00010724,1.419e-05,0.0,0 STARLINK-4109,1 53268U 22086AC  24168.65150226  .00001419  00000-0  10724-3 0  9992,2 53268  53.2177 146.9614 0001438  87.9205 272.1951 15.08841556105803,6917.876,95.437,540.735,538.746,0.0
53268.0,STARLINK-4109,PAYLOAD,2024-06-17 15:28:57,15.08828613,0.0001715,53.2185,142.5008,92.1407,267.9782,0.00019337,2.79e-05,0.0,0 STARLINK-4109,1 53268U 22086AC  24169.64511050  .00002790  00000-0  19337-3 0  9990,2 53268  53.2185 142.5008 0001715  92.1407 267.9782 15.08828613105770,6917.915,95.438,540.967,538.594,0.0
53268.0,STARLINK-4109,PAYLOAD,2024-06-17 21:50:29,15.08838508,0.0001698,53.218,141.3117,88.0152,272.1035,3.5611e-05,2.79e-06,0.0,0 STARLINK-4109,1 53268U 22086AC  24169.91006767  .00000279  00000-0  35611-4 0  9998,2 53268  53.2180 141.3117 0001698  88.0152 272.1035 15.08838508105991,6917.885,95.438,540.925,538.575,0.0
53268.0,STARLINK-4109,PAYLOAD,2024-06-18 04:12:02,15.08839096,0.0001468,53.2167,140.1223,91.1066,269.0094,3.163e-05,2.15e-06,0.0,0 STARLINK-4109,1 53268U 22086AC  24170.17502684  .00000215  00000-0  31630-4 0  9994,2 53268  53.2167 140.1223 0001468  91.1066 269.0094 15.08839096105853,6917.883,95.438,540.764,538.733,0.0
53268.0,STARLINK-4109,PAYLOAD,2024-06-18 07:22:48,15.08840737,0.0001409,53.2165,139.5267,90.575,269.5404,4.2377e-05,3.87e-06,0.0,0 STARLINK-4109,1 53268U 22086AC  24170.30750552  .00000387  00000-0  42377-4 0  9998,2 53268  53.2165 139.5267 0001409  90.5750 269.5404 15.08840737106056,6917.878,95.438,540.718,538.768,0.0
